H1 CPF 01  gfz 2021 09 22 12  7652 tandemx   
H2 1003001  6202 36605    2021 09 22 12 59 42 2021 09 27 00 00 42   120 1 1  0 0 0
H9
10 0 59481  72702.000000  0    4268505.835  -1940642.197  -5054658.245
10 0 59481  72822.000000  0    4734068.141  -2393596.258  -4403310.198
10 0 59481  72942.000000  0    5109676.593  -2812284.188  -3674843.146
10 0 59481  73062.000000  0    5389380.106  -3187745.327  -2881945.765
10 0 59481  73182.000000  0    5569039.876  -3511670.595  -2038467.302
10 0 59481  73302.000000  0    5646398.947  -3776585.467  -1159177.646
10 0 59481  73422.000000  0    5621115.635  -3976020.634   -259507.487
10 0 59481  73542.000000  0    5494758.950  -4104664.965    644727.388
10 0 59481  73662.000000  0    5270765.225  -4158497.572   1537611.869
10 0 59481  73782.000000  0    4954356.022  -4134893.925   2403421.307
10 0 59481  73902.000000  0    4552419.737  -4032702.074   3226907.008
10 0 59481  74022.000000  0    4073361.374  -3852289.382   3993571.262
10 0 59481  74142.000000  0    3526923.965  -3595558.875   4689927.887
10 0 59481  74262.000000  0    2923984.099  -3265933.290   5303741.962
10 0 59481  74382.000000  0    2276330.150  -2868307.912   5824243.377
10 0 59481  74502.000000  0    1596426.538  -2408974.217   6242312.704
10 0 59481  74622.000000  0     897169.697  -1895516.502   6550634.932
10 0 59481  74742.000000  0     191641.225  -1336683.519   6743821.448
10 0 59481  74862.000000  0    -507137.367   -742237.149   6818498.612
10 0 59481  74982.000000  0   -1186444.143   -122780.708   6773362.371
10 0 59481  75102.000000  0   -1834087.367    510429.887   6609199.574
10 0 59481  75222.000000  0   -2438623.629   1145690.072   6328875.176
10 0 59481  75342.000000  0   -2989560.404   1771062.038   5937285.475
10 0 59481  75462.000000  0   -3477539.868   2374598.557   5441278.344
10 0 59481  75582.000000  0   -3894501.966   2944572.461   4849540.141
10 0 59481  75702.000000  0   -4233822.478   3469706.809   4172448.851
10 0 59481  75822.000000  0   -4490424.086   3939401.168   3421896.554
10 0 59481  75942.000000  0   -4660857.391   4343949.502   2611082.323
10 0 59481  76062.000000  0   -4743348.724   4674745.261   1754279.174
10 0 59481  76182.000000  0   -4737813.953   4924467.486    866578.324
10 0 59481  76302.000000  0   -4645838.442   5087241.793    -36383.047
10 0 59481  76422.000000  0   -4470624.095   5158774.771   -938705.024
10 0 59481  76542.000000  0   -4216902.068   5136457.072  -1824516.166
10 0 59481  76662.000000  0   -3890812.734   5019429.992  -2678260.750
10 0 59481  76782.000000  0   -3499760.833   4808617.765  -3484978.686
10 0 59481  76902.000000  0   -3052245.771   4506721.823  -4230570.519
10 0 59481  77022.000000  0   -2557674.382   4118180.355  -4902041.463
10 0 59481  77142.000000  0   -2026161.238   3649095.870  -5487721.193
10 0 59481  77262.000000  0   -1468321.184   3107132.721  -5977458.804
10 0 59481  77382.000000  0    -895057.110   2501384.777  -6362789.230
10 0 59481  77502.000000  0    -317348.171   1842217.699  -6637067.699
10 0 59481  77622.000000  0     253956.801   1141090.271  -6795572.946
10 0 59481  77742.000000  0     808337.700    410356.946  -6835580.214
10 0 59481  77862.000000  0    1335792.862   -336945.808  -6756403.779
10 0 59481  77982.000000  0    1827015.112  -1087327.425  -6559405.938
10 0 59481  78102.000000  0    2273551.721  -1827080.112  -6247975.768
10 0 59481  78222.000000  0    2667948.019  -2542522.807  -5827477.384
10 0 59481  78342.000000  0    3003872.005  -3220250.025  -5305168.913
10 0 59481  78462.000000  0    3276219.150  -3847383.885  -4690088.187
10 0 59481  78582.000000  0    3481192.095  -4411819.788  -3992905.256
10 0 59481  78702.000000  0    3616355.648  -4902462.693  -3225748.137
10 0 59481  78822.000000  0    3680667.424  -5309452.053  -2402000.843
10 0 59481  78942.000000  0    3674480.129  -5624368.661  -1536073.245
10 0 59481  79062.000000  0    3599515.682  -5840415.673   -643148.923
10 0 59481  79182.000000  0    3458811.197  -5952571.175    261085.374
10 0 59481  79302.000000  0    3256636.620  -5957705.948   1160721.894
10 0 59481  79422.000000  0    2998388.277  -5854664.955   2039920.310
10 0 59481  79542.000000  0    2690458.389  -5644307.034   2883196.884
10 0 59481  79662.000000  0    2340084.555  -5329503.793   3675704.303
10 0 59481  79782.000000  0    1955184.653  -4915099.094   4403498.119
10 0 59481  79902.000000  0    1544180.572  -4407829.123   5053785.566
10 0 59481  80022.000000  0    1115815.964  -3816205.456   5615150.897
10 0 59481  80142.000000  0     678970.244  -3150363.261   6077754.521
10 0 59481  80262.000000  0     242474.481  -2421879.157   6433499.231
10 0 59481  80382.000000  0    -185065.923  -1643564.601   6676164.897
10 0 59481  80502.000000  0    -595439.238   -829238.219   6801511.419
10 0 59481  80622.000000  0    -980983.905      6521.168   6807349.474
10 0 59481  80742.000000  0   -1334730.816    848636.099   6693576.263
10 0 59481  80862.000000  0   -1650528.859   1681801.963   6462176.828
10 0 59481  80982.000000  0   -1923152.103   2490764.306   6117191.696
10 0 59481  81102.000000  0   -2148387.032   3260598.409   5664650.562
10 0 59481  81222.000000  0   -2323098.061   3976986.242   5112472.673
10 0 59481  81342.000000  0   -2445271.445   4626487.226   4470335.306
10 0 59481  81462.000000  0   -2514035.715   5196797.366   3749509.225
10 0 59481  81582.000000  0   -2529658.121   5676990.737   2962663.465
10 0 59481  81702.000000  0   -2493516.564   6057736.914   2123642.327
10 0 59481  81822.000000  0   -2408048.165   6331490.119   1247219.363
10 0 59481  81942.000000  0   -2276674.859   6492645.142    348831.975
10 0 59481  82062.000000  0   -2103708.144   6537655.787   -555697.794
10 0 59481  82182.000000  0   -1894235.687   6465113.163  -1450451.109
10 0 59481  82302.000000  0   -1653991.292   6275779.309  -2319704.480
10 0 59481  82422.000000  0   -1389211.817   5972572.656  -3148213.372
10 0 59481  82542.000000  0   -1106486.995   5560513.513  -3921481.283
10 0 59481  82662.000000  0    -812605.638   5046629.964  -4626013.574
10 0 59481  82782.000000  0    -514401.356   4439825.744  -5249548.877
10 0 59481  82902.000000  0    -218601.200   3750715.788  -5781265.829
10 0 59481  83022.000000  0      68319.690   2991431.141  -6211962.372
10 0 59481  83142.000000  0     340273.614   2175398.139  -6534203.538
10 0 59481  83262.000000  0     591683.409   1317099.100  -6742437.905
10 0 59481  83382.000000  0     817592.091    431816.788  -6833084.200
10 0 59481  83502.000000  0    1013756.770   -464633.615  -6804585.978
10 0 59481  83622.000000  0    1176725.542  -1356181.477  -6657434.492
10 0 59481  83742.000000  0    1303896.455  -2226780.740  -6394159.737
10 0 59481  83862.000000  0    1393558.733  -3060690.771  -6019292.780
10 0 59481  83982.000000  0    1444915.217  -3842757.347  -5539297.980
10 0 59481  84102.000000  0    1458084.545  -4558688.549  -4962471.410
10 0 59481  84222.000000  0    1434084.782  -5195317.394  -4298807.953
10 0 59481  84342.000000  0    1374797.369  -5740850.426  -3559839.874
10 0 59481  84462.000000  0    1282911.167  -6185096.041  -2758444.723
10 0 59481  84582.000000  0    1161849.082  -6519666.156  -1908626.439
10 0 59481  84702.000000  0    1015678.151  -6738147.074  -1025272.310
10 0 59481  84822.000000  0     849003.864  -6836233.758   -123889.687
10 0 59481  84942.000000  0     666852.261  -6811823.059    779671.665
10 0 59481  85062.000000  0     474542.698  -6665064.184   1669505.579
10 0 59481  85182.000000  0     277554.267  -6398364.258   2529939.012
10 0 59481  85302.000000  0      81389.323  -6016346.788   3345818.328
10 0 59481  85422.000000  0    -108562.911  -5525763.815   4102783.016
10 0 59481  85542.000000  0    -287158.594  -4935368.331   4787521.533
10 0 59481  85662.000000  0    -449623.793  -4255748.407   5388007.057
10 0 59481  85782.000000  0    -591668.253  -3499127.617   5893707.455
10 0 59481  85902.000000  0    -709586.480  -2679134.998   6295766.873
10 0 59481  86022.000000  0    -800343.746  -1810551.805   6587153.219
10 0 59481  86142.000000  0    -861645.602   -909042.327   6762774.398
10 0 59481  86262.000000  0    -891990.222      9130.218   6819563.357
10 0 59481  86382.000000  0    -890702.384    927397.787   6756528.577
10 0 59482    102.000000  0    -857947.370   1829186.186   6574770.264
10 0 59482    222.000000  0    -794725.329   2698213.702   6277462.193
10 0 59482    342.000000  0    -702846.702   3518785.214   5869799.899
10 0 59482    462.000000  0    -584889.026   4276078.019   5358914.929
10 0 59482    582.000000  0    -444135.333   4956413.389   4753755.976
10 0 59482    702.000000  0    -284495.753   5547511.702   4064938.237
10 0 59482    822.000000  0    -110412.777   6038721.483   3304559.587
10 0 59482    942.000000  0      73245.668   6421221.333   2485993.607
10 0 59482   1062.000000  0     261305.348   6688192.857   1623650.733
10 0 59482   1182.000000  0     448414.596   6834948.271    732718.224
10 0 59482   1302.000000  0     629178.133   6859017.933   -171113.738
10 0 59482   1422.000000  0     798293.113   6760193.634  -1071937.143
10 0 59482   1542.000000  0     950682.425   6540525.286  -1953914.965
10 0 59482   1662.000000  0    1081622.390   6204273.298  -2801566.676
10 0 59482   1782.000000  0    1186862.591   5757817.482  -3600045.216
10 0 59482   1902.000000  0    1262734.922   5209525.015  -4335399.437
10 0 59482   2022.000000  0    1306249.004   4569581.184  -4994816.613
10 0 59482   2142.000000  0    1315171.796   3849788.033  -5566839.885
10 0 59482   2262.000000  0    1288089.595   3063337.601  -6041558.773
10 0 59482   2382.000000  0    1224451.670   2224562.878  -6410770.617
10 0 59482   2502.000000  0    1124594.697   1348673.734  -6668109.708
10 0 59482   2622.000000  0     989748.340    451483.006  -6809147.092
10 0 59482   2742.000000  0     822021.643   -450875.262  -6831458.839
99
